start=new Date('2021-10-24T00:00:00.000Z').valueOf();
sats=[{"EPOCH":"2021-10-23T17:48:25.919424","TLE_LINE2":"2 47662  53.0553  25.0890 0001170  74.8468 285.2650 15.06398022 39420","OBJECT_TYPE":"PAYLOAD","MEAN_MOTION_DOT":"0.00000655","LAUNCH_DATE":"2021-02-16","MEAN_ELEMENT_THEORY":"SGP4","PERIAPSIS":"546.409","REV_AT_EPOCH":"3942","TLE_LINE1":"1 47662U 21012AU  21296.74196666  .00000655  00000-0  62874-4 0  9993","SEMIMAJOR_AXIS":"6925.355","RCS_SIZE":"LARGE","ECCENTRICITY":"0.00011700","RA_OF_ASC_NODE":"25.0890","PERIOD":"95.592","EPHEMERIS_TYPE":"0","CENTER_NAME":"EARTH","CLASSIFICATION_TYPE":"U","INCLINATION":"53.0553","MEAN_ANOMALY":"285.2650","NORAD_CAT_ID":"47662","COUNTRY_CODE":"US","BSTAR":"0.00006287400000","GP_ID":"188024561","REF_FRAME":"TEME","TIME_SYSTEM":"UTC","MEAN_MOTION_DDOT":"0.0000000000000","MEAN_MOTION":"15.06398022","OBJECT_ID":"2021-012AU","DECAY_DATE":null,"SITE":"AFETR","ARG_OF_PERICENTER":"74.8468","ELEMENT_SET_NO":"999","FILE":"3181152","APOAPSIS":"548.030","OBJECT_NAME":"STARLINK-2052"},{"REV_AT_EPOCH":"367","PERIAPSIS":"504.487","MEAN_ELEMENT_THEORY":"SGP4","LAUNCH_DATE":"2021-02-16","TLE_LINE2":"2 47663  53.0405 304.2001 0001564  43.4810 308.0015 15.20092401  3678","EPOCH":"2021-10-24T00:00:02.000160","MEAN_MOTION_DOT":"-0.01055723","OBJECT_TYPE":"PAYLOAD","PERIOD":"94.731","RCS_SIZE":"LARGE","ECCENTRICITY":"0.00015640","SEMIMAJOR_AXIS":"6883.699","TLE_LINE1":"1 47663U 21012AV  21297.00002315 -.01055723  00000-0 -52702-1 0  9996","RA_OF_ASC_NODE":"304.2001","COUNTRY_CODE":"US","NORAD_CAT_ID":"47663","MEAN_ANOMALY":"308.0015","REF_FRAME":"TEME","GP_ID":"188025313","BSTAR":"-0.05270200000000","EPHEMERIS_TYPE":"0","INCLINATION":"53.0405","CLASSIFICATION_TYPE":"U","CENTER_NAME":"EARTH","SITE":"AFETR","ARG_OF_PERICENTER":"43.4810","OBJECT_NAME":"STARLINK-2053","FILE":"3181152","APOAPSIS":"506.640","ELEMENT_SET_NO":"999","TIME_SYSTEM":"UTC","DECAY_DATE":null,"OBJECT_ID":"2021-012AV","MEAN_MOTION":"15.20092401","MEAN_MOTION_DDOT":"0.0000000000000"},{"MEAN_MOTION_DOT":"0.00003880","OBJECT_TYPE":"PAYLOAD","EPOCH":"2021-10-23T16:14:15.008640","TLE_LINE2":"2 47664  53.0552  25.3885 0001281  96.2273 263.8861 15.06409833 39411","MEAN_ELEMENT_THEORY":"SGP4","PERIAPSIS":"546.296","LAUNCH_DATE":"2021-02-16","REV_AT_EPOCH":"3941","RA_OF_ASC_NODE":"25.3885","TLE_LINE1":"1 47664U 21012AW  21296.67656260  .00003880  00000-0  27914-3 0  9996","ECCENTRICITY":"0.00012810","RCS_SIZE":"LARGE","SEMIMAJOR_AXIS":"6925.318","PERIOD":"95.592","CENTER_NAME":"EARTH","INCLINATION":"53.0552","CLASSIFICATION_TYPE":"U","EPHEMERIS_TYPE":"0","BSTAR":"0.00027914000000","GP_ID":"188025064","REF_FRAME":"TEME","NORAD_CAT_ID":"47664","MEAN_ANOMALY":"263.8861","COUNTRY_CODE":"US","MEAN_MOTION":"15.06409833","MEAN_MOTION_DDOT":"0.0000000000000","DECAY_DATE":null,"OBJECT_ID":"2021-012AW","TIME_SYSTEM":"UTC","OBJECT_NAME":"STARLINK-2054","FILE":"3181152","APOAPSIS":"548.071","ELEMENT_SET_NO":"999","ARG_OF_PERICENTER":"96.2273","SITE":"AFETR"},{"PERIOD":"95.592","RCS_SIZE":"LARGE","ECCENTRICITY":"0.00045190","SEMIMAJOR_AXIS":"6925.355","TLE_LINE1":"1 47665U 21012AX  21296.71846536  .00001149  00000-0  96063-4 0  9997","RA_OF_ASC_NODE":"20.1903","REV_AT_EPOCH":"3948","LAUNCH_DATE":"2021-02-16","MEAN_ELEMENT_THEORY":"SGP4","PERIAPSIS":"544.090","TLE_LINE2":"2 47665  53.0541  20.1903 0004519 319.7782  40.2872 15.06397992 39487","EPOCH":"2021-10-23T17:14:35.407104","OBJECT_TYPE":"PAYLOAD","MEAN_MOTION_DOT":"0.00001149","SITE":"AFETR","ARG_OF_PERICENTER":"319.7782","APOAPSIS":"550.349","FILE":"3181152","ELEMENT_SET_NO":"999","OBJECT_NAME":"STARLINK-2056","TIME_SYSTEM":"UTC","OBJECT_ID":"2021-012AX","DECAY_DATE":null,"MEAN_MOTION_DDOT":"0.0000000000000","MEAN_MOTION":"15.06397992","COUNTRY_CODE":"US","NORAD_CAT_ID":"47665","MEAN_ANOMALY":"40.2872","REF_FRAME":"TEME","GP_ID":"188023812","BSTAR":"0.00009606300000","EPHEMERIS_TYPE":"0","CLASSIFICATION_TYPE":"U","INCLINATION":"53.0541","CENTER_NAME":"EARTH"},{"OBJECT_ID":"2021-012AY","DECAY_DATE":null,"MEAN_MOTION_DDOT":"0.0000000000000","MEAN_MOTION":"15.06399061","TIME_SYSTEM":"UTC","ELEMENT_SET_NO":"999","FILE":"3181152","APOAPSIS":"548.102","OBJECT_NAME":"STARLINK-2057","SITE":"AFETR","ARG_OF_PERICENTER":"72.0391","CLASSIFICATION_TYPE":"U","INCLINATION":"53.0571","CENTER_NAME":"EARTH","EPHEMERIS_TYPE":"0","REF_FRAME":"TEME","GP_ID":"188024062","BSTAR":"0.00017228000000","COUNTRY_CODE":"US","MEAN_ANOMALY":"288.0738","NORAD_CAT_ID":"47666","RA_OF_ASC_NODE":"20.6294","SEMIMAJOR_AXIS":"6925.351","RCS_SIZE":"MEDIUM","ECCENTRICITY":"0.00012790","TLE_LINE1":"1 47666U 21012AY  21296.61895251  .00002286  00000-0  17228-3 0  9993","PERIOD":"95.592","OBJECT_TYPE":"PAYLOAD","MEAN_MOTION_DOT":"0.00002286","TLE_LINE2":"2 47666  53.0571  20.6294 0001279  72.0391 288.0738 15.06399061 39475","EPOCH":"2021-10-23T14:51:17.496864","REV_AT_EPOCH":"3947","LAUNCH_DATE":"2021-02-16","MEAN_ELEMENT_THEORY":"SGP4","PERIAPSIS":"546.331"},{"COUNTRY_CODE":"US","MEAN_ANOMALY":"255.9487","NORAD_CAT_ID":"47667","REF_FRAME":"TEME","GP_ID":"188024814","BSTAR":"0.00014624000000","EPHEMERIS_TYPE":"0","CLASSIFICATION_TYPE":"U","INCLINATION":"53.0581","CENTER_NAME":"EARTH","ARG_OF_PERICENTER":"104.1651","SITE":"AFETR","ELEMENT_SET_NO":"999","FILE":"3181152","APOAPSIS":"548.144","OBJECT_NAME":"STARLINK-2058","TIME_SYSTEM":"UTC","OBJECT_ID":"2021-012AZ","DECAY_DATE":null,"MEAN_MOTION_DDOT":"0.0000000000000","MEAN_MOTION":"15.06400673","REV_AT_EPOCH":"3912","LAUNCH_DATE":"2021-02-16","MEAN_ELEMENT_THEORY":"SGP4","PERIAPSIS":"546.279","TLE_LINE2":"2 47667  53.0581  44.9455 0001346 104.1651 255.9487 15.06400673 39124","EPOCH":"2021-10-23T18:34:55.032384","OBJECT_TYPE":"PAYLOAD","MEAN_MOTION_DOT":"0.00001897","PERIOD":"95.592","RCS_SIZE":"LARGE","ECCENTRICITY":"0.00013460","SEMIMAJOR_AXIS":"6925.346","TLE_LINE1":"1 47667U 21012AZ  21296.77424806  .00001897  00000-0  14624-3 0  9999","RA_OF_ASC_NODE":"44.9455"},{"PERIOD":"95.592","TLE_LINE1":"1 47668U 21012BA  21296.75028088  .00001930  00000-0  14839-3 0  9996","RCS_SIZE":"LARGE","ECCENTRICITY":"0.00011800","SEMIMAJOR_AXIS":"6925.342","RA_OF_ASC_NODE":"25.0617","LAUNCH_DATE":"2021-02-16","PERIAPSIS":"546.390","MEAN_ELEMENT_THEORY":"SGP4","REV_AT_EPOCH":"3942","EPOCH":"2021-10-23T18:00:24.268032","TLE_LINE2":"2 47668  53.0554  25.0617 0001180  94.8446 265.2678 15.06402052 39420","OBJECT_TYPE":"PAYLOAD","MEAN_MOTION_DOT":"0.00001930","ARG_OF_PERICENTER":"94.8446","SITE":"AFETR","APOAPSIS":"548.024","FILE":"3181152","ELEMENT_SET_NO":"999","OBJECT_NAME":"STARLINK-2059","TIME_SYSTEM":"UTC","MEAN_MOTION_DDOT":"0.0000000000000","MEAN_MOTION":"15.06402052","OBJECT_ID":"2021-012BA","DECAY_DATE":null,"MEAN_ANOMALY":"265.2678","NORAD_CAT_ID":"47668","COUNTRY_CODE":"US","BSTAR":"0.00014839000000","GP_ID":"188025564","REF_FRAME":"TEME","EPHEMERIS_TYPE":"0","CENTER_NAME":"EARTH","CLASSIFICATION_TYPE":"U","INCLINATION":"53.0554"},{"PERIAPSIS":"546.156","MEAN_ELEMENT_THEORY":"SGP4","LAUNCH_DATE":"2021-02-16","REV_AT_EPOCH":"363","MEAN_MOTION_DOT":"0.00027397","OBJECT_TYPE":"PAYLOAD","EPOCH":"2021-10-24T00:00:02.000160","TLE_LINE2":"2 47669  53.0501 308.9238 0001703  44.5767 228.2261 15.06360219  3633","PERIOD":"95.595","RA_OF_ASC_NODE":"308.9238","TLE_LINE1":"1 47669U 21012BB  21297.00002315  .00027397  00000-0  18530-2 0  9997","RCS_SIZE":"MEDIUM","ECCENTRICITY":"0.00017030","SEMIMAJOR_AXIS":"6925.470","BSTAR":"0.00185300000000","REF_FRAME":"TEME","GP_ID":"188024312","NORAD_CAT_ID":"47669","MEAN_ANOMALY":"228.2261","COUNTRY_CODE":"US","CENTER_NAME":"EARTH","INCLINATION":"53.0501","CLASSIFICATION_TYPE":"U","EPHEMERIS_TYPE":"0","OBJECT_NAME":"STARLINK-2060","FILE":"3181152","APOAPSIS":"548.515","ELEMENT_SET_NO":"999","SITE":"AFETR","ARG_OF_PERICENTER":"44.5767","MEAN_MOTION":"15.06360219","MEAN_MOTION_DDOT":"0.0000000000000","DECAY_DATE":null,"OBJECT_ID":"2021-012BB","TIME_SYSTEM":"UTC"},{"MEAN_MOTION":"15.06404760","MEAN_MOTION_DDOT":"0.0000000000000","DECAY_DATE":null,"OBJECT_ID":"2021-012BC","TIME_SYSTEM":"UTC","OBJECT_NAME":"STARLINK-2062","FILE":"3181152","APOAPSIS":"551.759","ELEMENT_SET_NO":"999","SITE":"AFETR","ARG_OF_PERICENTER":"342.7275","CENTER_NAME":"EARTH","INCLINATION":"53.0560","CLASSIFICATION_TYPE":"U","EPHEMERIS_TYPE":"0","BSTAR":"0.00010815000000","REF_FRAME":"TEME","GP_ID":"188024562","NORAD_CAT_ID":"47670","MEAN_ANOMALY":"17.3489","COUNTRY_CODE":"US","RA_OF_ASC_NODE":"25.5665","TLE_LINE1":"1 47670U 21012BC  21296.63232055  .00001329  00000-0  10815-3 0  9999","SEMIMAJOR_AXIS":"6925.334","RCS_SIZE":"LARGE","ECCENTRICITY":"0.00065840","PERIOD":"95.592","MEAN_MOTION_DOT":"0.00001329","OBJECT_TYPE":"PAYLOAD","EPOCH":"2021-10-23T15:10:32.495520","TLE_LINE2":"2 47670  53.0560  25.5665 0006584 342.7275  17.3489 15.06404760 39396","PERIAPSIS":"542.639","MEAN_ELEMENT_THEORY":"SGP4","LAUNCH_DATE":"2021-02-16","REV_AT_EPOCH":"3939"},{"APOAPSIS":"547.911","FILE":"3181152","ELEMENT_SET_NO":"999","OBJECT_NAME":"STARLINK-2064","ARG_OF_PERICENTER":"86.9682","SITE":"AFETR","MEAN_MOTION_DDOT":"0.0000000000000","MEAN_MOTION":"15.06395794","OBJECT_ID":"2021-012BD","DECAY_DATE":null,"TIME_SYSTEM":"UTC","BSTAR":"0.00003016000000","GP_ID":"188025314","REF_FRAME":"TEME","MEAN_ANOMALY":"273.1420","NORAD_CAT_ID":"47671","COUNTRY_CODE":"US","CENTER_NAME":"EARTH","CLASSIFICATION_TYPE":"U","INCLINATION":"53.0567","EPHEMERIS_TYPE":"0","PERIOD":"95.592","RA_OF_ASC_NODE":"25.0710","TLE_LINE1":"1 47671U 21012BD  21296.74659681  .00000168  00000-0  30160-4 0  9996","SEMIMAJOR_AXIS":"6925.361","RCS_SIZE":"LARGE","ECCENTRICITY":"0.00009880","LAUNCH_DATE":"2021-02-16","PERIAPSIS":"546.542","MEAN_ELEMENT_THEORY":"SGP4","REV_AT_EPOCH":"3942","OBJECT_TYPE":"PAYLOAD","MEAN_MOTION_DOT":"0.00000168","EPOCH":"2021-10-23T17:55:05.964384","TLE_LINE2":"2 47671  53.0567  25.0710 0000988  86.9682 273.1420 15.06395794 39428"}];
